IRIDIUM 26              
1 24903U 97043A   25052.53130748  .00000899  00000+0  29691-3 0  9991
2 24903  86.4026 159.1798 0002305  97.6338 262.5121 14.36985949440131
IRIDIUM 22              
1 24907U 97043E   25052.57531525  .00000836  00000+0  28214-3 0  9998
2 24907  86.4032 162.5954 0002080  94.6248 265.5187 14.35817669440183
DUMMY MASS 1            
1 24925U 97048A   25052.39589253  .00001119  00000+0  12244-3 0  9995
2 24925  86.3396 188.8137 0006382 177.1070 183.0193 14.86808371487928
DUMMY MASS 2            
1 24926U 97048B   25052.40610016  .00001097  00000+0  12077-3 0  9999
2 24926  86.3393 190.3932 0006687 191.2813 168.8263 14.86561326487708
IRIDIUM 29              
1 24944U 97051A   25052.63832189  .00001046  00000+0  35156-3 0  9992
2 24944  86.4007 192.3062 0001838  91.9330 268.2077 14.36293656436682
IRIDIUM 33              
1 24946U 97051C   25052.63457788  .00000726  00000+0  24918-3 0  9990
2 24946  86.3925 191.5595 0009890  95.2899 264.9426 14.34772941436179
IRIDIUM 28              
1 24948U 97051E   25052.61690015  .00000972  00000+0  32012-3 0  9999
2 24948  86.4017 189.8994 0002482  95.7471 264.4009 14.37227644437247
IRIDIUM 36              
1 24967U 97056C   25052.52775360  .00001100  00000+0  36170-3 0  9995
2 24967  86.3959 221.5317 0002206  86.6623 273.4827 14.37425305435607
